     2.10           G: GLONASS NAV DATA                     RINEX VERSION / TYPE
teqc  2015Jun23                         20211107 01:25:48UTCPGM / RUN BY / DATE
Linux 2.4.21-27.ELsmp|Opteron|gcc -static|Linux x86_64|=+   COMMENT
  2021    10    14   -2.793967723846D-09                    CORR TO SYSTEM TIME
                                                            END OF HEADER
23 21 10 15  6 45  0.0-1.658871769905D-05-9.094947017729D-13 2.340000000000D+04
   -6.869691406250D+03-1.192123413086D+00-9.313225746155D-10 0.000000000000D+00
    9.502127441406D+03-2.868928909302D+00-9.313225746155D-10 3.000000000000D+00
   -2.265829248047D+04-8.426446914673D-01 1.862645149231D-09 0.000000000000D+00
 2 21 10 15  6 45  0.0 4.966929554939D-04 9.094947017729D-13 2.385000000000D+04
   -4.654122070312D+03-3.108567237854D+00 1.862645149231D-09 0.000000000000D+00
    1.036884082031D+04-2.950820922852D-01-0.000000000000D+00-4.000000000000D+00
    2.286427978516D+04-5.056619644165D-01-1.862645149231D-09 0.000000000000D+00
18 21 10 15  6 45  0.0 9.382050484419D-05 9.094947017729D-13 2.472000000000D+04
    1.404273486328D+04 1.100182533264D+00 2.793967723846D-09 0.000000000000D+00
    1.280765771484D+04 2.064540863037D+00 9.313225746155D-10-3.000000000000D+00
    1.705050634766D+04-2.455254554749D+00-0.000000000000D+00 0.000000000000D+00
17 21 10 15  7 15  0.0 4.665162414312D-04 1.818989403546D-12 2.520000000000D+04
    1.135989111328D+04-1.522254943848D-01 2.793967723846D-09 0.000000000000D+00
    2.232718457031D+04-6.604671478271D-01 0.000000000000D+00 4.000000000000D+00
   -4.663473144531D+03-3.530200004578D+00 9.313225746155D-10 0.000000000000D+00
24 21 10 15  7 15  0.0 6.276369094849D-05 9.094947017729D-13 2.520000000000D+04
   -3.029575195312D+02-1.263585090637D+00-0.000000000000D+00 0.000000000000D+00
    1.685589990234D+04-2.301366806030D+00-0.000000000000D+00 2.000000000000D+00
   -1.911588525391D+04-2.009529113770D+00 1.862645149231D-09 0.000000000000D+00
12 21 10 15  7 15  0.0 2.701934427023D-04 3.637978807092D-12 2.520000000000D+04
   -1.531567675781D+04 1.056746482849D+00 0.000000000000D+00 0.000000000000D+00
    1.380740771484D+04-1.763974189758D+00-9.313225746155D-10-1.000000000000D+00
    1.503278027344D+04 2.704052925110D+00-1.862645149231D-09 0.000000000000D+00
13 21 10 15  7 15  0.0-6.212294101715D-05-0.000000000000D+00 2.520000000000D+04
   -1.113320019531D+04 7.417964935303D-02 0.000000000000D+00 0.000000000000D+00
    2.292804150391D+04 1.934442520142D-01-9.313225746155D-10-2.000000000000D+00
   -1.022743652344D+03 3.562513351440D+00-9.313225746155D-10 0.000000000000D+00
14 21 10 15  7 15  0.0 6.991997361183D-05 0.000000000000D+00 2.520000000000D+04
   -1.253364257812D+02-1.025958061218D+00 0.000000000000D+00 0.000000000000D+00
    1.855875195312D+04 2.168374061584D+00-0.000000000000D+00-7.000000000000D+00
   -1.748970312500D+04 2.304472923279D+00 9.313225746155D-10 0.000000000000D+00
18 21 10 15  7 15  0.0 9.382329881191D-05 9.094947017729D-13 2.520000000000D+04
    1.600823095703D+04 1.038866996765D+00 3.725290298462D-09 0.000000000000D+00
    1.584301562500D+04 1.293775558472D+00 9.313225746155D-10-3.000000000000D+00
    1.203080126953D+04-3.086088180542D+00 0.000000000000D+00 0.000000000000D+00
 2 21 10 15  7 15  0.0 4.966957494617D-04 9.094947017729D-13 2.541000000000D+04
   -1.008670654297D+04-2.877427101135D+00 9.313225746155D-10 0.000000000000D+00
    1.025016699219D+04 1.536359786987D-01-9.313225746155D-10-4.000000000000D+00
    2.108429541016D+04-1.459514617920D+00-2.793967723846D-09 0.000000000000D+00
17 21 10 15  7 45  0.0 4.665208980441D-04 1.818989403546D-12 2.700000000000D+04
    1.053749560547D+04-7.835769653320D-01 1.862645149231D-09 0.000000000000D+00
    2.055735595703D+04-1.268294334412D+00 0.000000000000D+00 4.000000000000D+00
   -1.075458251953D+04-3.193611145020D+00 9.313225746155D-10 0.000000000000D+00
24 21 10 15  7 45  0.0 6.276648491621D-05 9.094947017729D-13 2.700000000000D+04
   -3.099084472656D+03-1.831393241882D+00-9.313225746155D-10 0.000000000000D+00
    1.258877441406D+04-2.390884399414D+00-0.000000000000D+00 2.000000000000D+00
   -2.194556445312D+04-1.114131927490D+00 1.862645149231D-09 0.000000000000D+00
12 21 10 15  7 45  0.0 2.701990306377D-04 3.637978807092D-12 2.700000000000D+04
   -1.344260400391D+04 9.841556549072D-01 0.000000000000D+00 0.000000000000D+00
    1.000138134766D+04-2.440327644348D+00-9.313225746155D-10-1.000000000000D+00
    1.925703564453D+04 1.959257125854D+00-2.793967723846D-09 0.000000000000D+00
 2 21 10 15  7 45  0.0 4.966985434294D-04 9.094947017729D-13 2.700000000000D+04
   -1.484463671875D+04-2.367344856262D+00 0.000000000000D+00 0.000000000000D+00
    1.085684667969D+04 4.945373535156D-01-9.313225746155D-10-4.000000000000D+00
    1.767697363281D+04-2.302061080933D+00-2.793967723846D-09 0.000000000000D+00
13 21 10 15  7 45  0.0-6.212387233973D-05-0.000000000000D+00 2.700000000000D+04
   -1.068407763672D+04 3.856916427612D-01 0.000000000000D+00 0.000000000000D+00
    2.253510253906D+04-6.415500640869D-01-9.313225746155D-10-2.000000000000D+00
    5.346454101562D+03 3.468402862549D+00-9.313225746155D-10 0.000000000000D+00
14 21 10 15  7 45  0.0 6.991997361183D-05 0.000000000000D+00 2.700000000000D+04
   -1.473276367188D+03-4.856729507446D-01 0.000000000000D+00 0.000000000000D+00
    2.206000927734D+04 1.678572654724D+00-9.313225746155D-10-7.000000000000D+00
   -1.271875585938D+04 2.962089538574D+00 0.000000000000D+00 0.000000000000D+00
18 21 10 15  7 45  0.0 9.382609277964D-05 9.094947017729D-13 2.700000000000D+04
    1.761982226562D+04 7.077512741089D-01 3.725290298462D-09 0.000000000000D+00
    1.744940380859D+04 4.966115951538D-01 0.000000000000D+00-3.000000000000D+00
    6.083670898438D+03-3.479064941406D+00 0.000000000000D+00 0.000000000000D+00
17 21 10 15  8 15  0.0 4.665255546570D-04 1.818989403546D-12 2.880000000000D+04
    8.491195312500D+03-1.494024276733D+00 9.313225746155D-10 0.000000000000D+00
    1.791493554688D+04-1.621582984924D+00-0.000000000000D+00 4.000000000000D+00
   -1.601152392578D+04-2.609424591064D+00 1.862645149231D-09 0.000000000000D+00
24 21 10 15  8 15  0.0 6.276834756136D-05 9.094947017729D-13 2.880000000000D+04
   -6.820958007812D+03-2.274747848511D+00-2.793967723846D-09 0.000000000000D+00
    8.416985839844D+03-2.201441764832D+00-0.000000000000D+00 2.000000000000D+00
   -2.307500000000D+04-1.326913833618D-01 9.313225746155D-10 0.000000000000D+00
13 21 10 15  8 15  0.0-6.212480366230D-05-0.000000000000D+00 2.880000000000D+04
   -9.892760742188D+03 4.519729614258D-01 0.000000000000D+00 0.000000000000D+00
    2.061165673828D+04-1.487734794617D+00-1.862645149231D-09-2.000000000000D+00
    1.130209277344D+04 3.105969429016D+00-1.862645149231D-09 0.000000000000D+00
 2 21 10 15  8 15  0.0 4.967004060745D-04 9.094947017729D-13 2.880000000000D+04
   -1.848309960938D+04-1.648236274719D+00-9.313225746155D-10 0.000000000000D+00
    1.191400341797D+04 6.424388885498D-01-1.862645149231D-09-4.000000000000D+00
    1.290319921875D+04-2.967845916748D+00-2.793967723846D-09 0.000000000000D+00
14 21 10 15  8 15  0.0 6.992090493441D-05 0.000000000000D+00 2.880000000000D+04
   -1.952205078125D+03-7.523918151855D-02 0.000000000000D+00 0.000000000000D+00
    2.446476220703D+04 9.619264602661D-01-9.313225746155D-10-7.000000000000D+00
   -6.964142578125D+03 3.390370368958D+00 0.000000000000D+00 0.000000000000D+00
18 21 10 15  8 15  0.0 9.382888674736D-05 9.094947017729D-13 2.880000000000D+04
    1.841025097656D+04 1.349458694458D-01 2.793967723846D-09 0.000000000000D+00
    1.768465869141D+04-2.114439010620D-01 0.000000000000D+00-3.000000000000D+00
   -3.325078125000D+02-3.603859901428D+00 9.313225746155D-10 0.000000000000D+00
15 21 10 15  8 15  0.0 1.008417457342D-04-9.094947017729D-13 2.895000000000D+04
    6.872468261719D+03-5.436315536499D-01 0.000000000000D+00 0.000000000000D+00
    1.376584716797D+04 2.735529899597D+00-0.000000000000D+00 0.000000000000D+00
   -2.032038916016D+04 1.667071342468D+00 1.862645149231D-09 0.000000000000D+00
 3 21 10 15  8 15  0.0 4.474166780710D-05 9.094947017729D-13 2.946000000000D+04
   -1.721312500000D+03-2.939244270325D+00 1.862645149231D-09 0.000000000000D+00
    1.176753515625D+04 9.370546340942D-01-9.313225746155D-10 5.000000000000D+00
    2.259407568359D+04-7.183599472046D-01-1.862645149231D-09 0.000000000000D+00
17 21 10 15  8 45  0.0 4.665302112699D-04 1.818989403546D-12 3.060000000000D+04
    5.180040527344D+03-2.169464111328D+00-0.000000000000D+00 0.000000000000D+00
    1.488981298828D+04-1.692887306213D+00-0.000000000000D+00 4.000000000000D+00
   -2.002699707031D+04-1.823242187500D+00 1.862645149231D-09 0.000000000000D+00
13 21 10 15  8 45  0.0-6.212573498487D-05-0.000000000000D+00 3.060000000000D+04
   -9.200084960938D+03 2.811985015869D-01 0.000000000000D+00 0.000000000000D+00
    1.724188671875D+04-2.230018615723D+00-9.313225746155D-10-2.000000000000D+00
    1.638334765625D+04 2.503170967102D+00-2.793967723846D-09 0.000000000000D+00
 2 21 10 15  8 45  0.0 4.967022687197D-04 9.094947017729D-13 3.060000000000D+04
   -2.071308886719D+04-8.209638595581D-01-2.793967723846D-09 0.000000000000D+00
    1.302236132812D+04 5.463771820068D-01-9.313225746155D-10-4.000000000000D+00
    7.130448730469D+03-3.404687881470D+00-1.862645149231D-09 0.000000000000D+00
 3 21 10 15  8 45  0.0 4.474259912968D-05 0.000000000000D+00 3.060000000000D+04
   -6.660325195312D+03-2.507934570312D+00 0.000000000000D+00 0.000000000000D+00
    1.374581250000D+04 1.230890274048D+00-9.313225746155D-10 5.000000000000D+00
    2.044655908203D+04-1.652525901794D+00-2.793967723846D-09 0.000000000000D+00
14 21 10 15  8 45  0.0 6.992183625698D-05 0.000000000000D+00 3.060000000000D+04
   -1.866778808594D+03 1.321001052856D-01 0.000000000000D+00 0.000000000000D+00
    2.543888769531D+04 1.059551239014D-01-9.313225746155D-10-7.000000000000D+00
   -6.711679687500D+02 3.556428909302D+00-9.313225746155D-10 0.000000000000D+00
